{
  "type": "FeatureCollection",
  "features": [
    {
      "type": "Feature",
      "properties": {
        "norad_id": 31761,
        "name": "FENGYUN 1C DEB",
        "group": "fengyun-1c-debris",
        "lat": -13.912659306097902,
        "lon": -152.9890010238811,
        "alt_km": 731.4906045837806,
        "timestamp": "2025-12-06T16:45:43.006104+00:00",
        "meta_object_name": "FENGYUN 1C DEB",
        "meta_object_id": "1999-025CFL",
        "meta_epoch": "2025-12-05T08:18:49.150080",
        "meta_mean_motion": 14.0325316,
        "meta_eccentricity": 0.04733622,
        "meta_inclination": 98.633,
        "meta_ra_of_asc_node": 203.5657,
        "meta_arg_of_pericenter": 284.3006,
        "meta_mean_anomaly": 70.6056,
        "meta_ephemeris_type": 0,
        "meta_classification_type": "U",
        "meta_norad_cat_id": 31761,
        "meta_element_set_no": 999,
        "meta_rev_at_epoch": 58007,
        "meta_bstar": 0.0039329885,
        "meta_mean_motion_dot": 0.00016786,
        "meta_mean_motion_ddot": 0,
        "tle_line1": "1 31761U 99025CFL 25339.34640220  .00016786  00000+0  39330-2 0  9993",
        "tle_line2": "2 31761  98.6330 203.5657 0473362 284.3006  70.6056 14.03253160580074"
      },
      "geometry": {
        "type": "Point",
        "coordinates": [
          -152.9890010238811,
          -13.912659306097902
        ]
      }
    },
    {
      "type": "Feature",
      "properties": {
        "norad_id": 31763,
        "name": "FENGYUN 1C DEB",
        "group": "fengyun-1c-debris",
        "lat": 79.34359120637184,
        "lon": 37.1153037915577,
        "alt_km": 656.3563317969083,
        "timestamp": "2025-12-06T16:45:43.006114+00:00",
        "meta_object_name": "FENGYUN 1C DEB",
        "meta_object_id": "1999-025CFN",
        "meta_epoch": "2025-12-06T05:51:02.145312",
        "meta_mean_motion": 13.50306772,
        "meta_eccentricity": 0.05469618,
        "meta_inclination": 98.5212,
        "meta_ra_of_asc_node": 89.5442,
        "meta_arg_of_pericenter": 86.408,
        "meta_mean_anomaly": 308.485,
        "meta_ephemeris_type": 0,
        "meta_classification_type": "U",
        "meta_norad_cat_id": 31763,
        "meta_element_set_no": 999,
        "meta_rev_at_epoch": 90918,
        "meta_bstar": 0.0015661341,
        "meta_mean_motion_dot": 2.532e-05,
        "meta_mean_motion_ddot": 0,
        "tle_line1": "1 31763U 99025CFN 25340.24377483  .00002532  00000+0  15661-2 0  9999",
        "tle_line2": "2 31763  98.5212  89.5442 0546961  86.4080 308.4850 13.50306772909187"
      },
      "geometry": {
        "type": "Point",
        "coordinates": [
          37.1153037915577,
          79.34359120637184
        ]
      }
    },
    {
      "type": "Feature",
      "properties": {
        "norad_id": 31766,
        "name": "FENGYUN 1C DEB",
        "group": "fengyun-1c-debris",
        "lat": -43.305436045354924,
        "lon": -12.897342081562408,
        "alt_km": 829.2415800895278,
        "timestamp": "2025-12-06T16:45:43.006124+00:00",
        "meta_object_name": "FENGYUN 1C DEB",
        "meta_object_id": "1999-025CFR",
        "meta_epoch": "2025-12-05T17:02:42.241632",
        "meta_mean_motion": 14.0527359,
        "meta_eccentricity": 0.00736647,
        "meta_inclination": 98.8158,
        "meta_ra_of_asc_node": 337.7312,
        "meta_arg_of_pericenter": 310.9952,
        "meta_mean_anomaly": 48.486,
        "meta_ephemeris_type": 0,
        "meta_classification_type": "U",
        "meta_norad_cat_id": 31766,
        "meta_element_set_no": 999,
        "meta_rev_at_epoch": 63987,
        "meta_bstar": 0.00041011226,
        "meta_mean_motion_dot": 6.36e-06,
        "meta_mean_motion_ddot": 0,
        "tle_line1": "1 31766U 99025CFR 25339.71021113  .00000636  00000+0  41011-3 0  9990",
        "tle_line2": "2 31766  98.8158 337.7312 0073664 310.9952  48.4860 14.05273590639874"
      },
      "geometry": {
        "type": "Point",
        "coordinates": [
          -12.897342081562408,
          -43.305436045354924
        ]
      }
    },
    {
      "type": "Feature",
      "properties": {
        "norad_id": 31767,
        "name": "FENGYUN 1C DEB",
        "group": "fengyun-1c-debris",
        "lat": -62.94659264111059,
        "lon": 28.26513936881286,
        "alt_km": 910.2929867947778,
        "timestamp": "2025-12-06T16:45:43.006134+00:00",
        "meta_object_name": "FENGYUN 1C DEB",
        "meta_object_id": "1999-025CFS",
        "meta_epoch": "2025-12-01T14:37:35.233248",
        "meta_mean_motion": 14.04944671,
        "meta_eccentricity": 0.0041867,
        "meta_inclination": 98.8235,
        "meta_ra_of_asc_node": 5.6102,
        "meta_arg_of_pericenter": 100.5814,
        "meta_mean_anomaly": 30.5422,
        "meta_ephemeris_type": 0,
        "meta_classification_type": "U",
        "meta_norad_cat_id": 31767,
        "meta_element_set_no": 999,
        "meta_rev_at_epoch": 94669,
        "meta_bstar": 0.00034816625,
        "meta_mean_motion_dot": 5.22e-06,
        "meta_mean_motion_ddot": 0,
        "tle_line1": "1 31767U 99025CFS 25335.60943557  .00000522  00000+0  34817-3 0  9990",
        "tle_line2": "2 31767  98.8235   5.6102 0041867 100.5814  30.5422 14.04944671946690"
      },
      "geometry": {
        "type": "Point",
        "coordinates": [
          28.26513936881286,
          -62.94659264111059
        ]
      }
    },
    {
      "type": "Feature",
      "properties": {
        "norad_id": 31768,
        "name": "FENGYUN 1C DEB",
        "group": "fengyun-1c-debris",
        "lat": -55.61157891119493,
        "lon": 66.31876117768356,
        "alt_km": 639.7961529830045,
        "timestamp": "2025-12-06T16:45:43.006145+00:00",
        "meta_object_name": "FENGYUN 1C DEB",
        "meta_object_id": "1999-025CFT",
        "meta_epoch": "2025-12-03T10:57:47.606400",
        "meta_mean_motion": 14.75610612,
        "meta_eccentricity": 0.00263536,
        "meta_inclination": 99.0442,
        "meta_ra_of_asc_node": 49.239,
        "meta_arg_of_pericenter": 11.0794,
        "meta_mean_anomaly": 1.6919,
        "meta_ephemeris_type": 0,
        "meta_classification_type": "U",
        "meta_norad_cat_id": 31768,
        "meta_element_set_no": 999,
        "meta_rev_at_epoch": 96736,
        "meta_bstar": 0.0034312431,
        "meta_mean_motion_dot": 0.00023557,
        "meta_mean_motion_ddot": 0,
        "tle_line1": "1 31768U 99025CFT 25337.45680100  .00023557  00000+0  34312-2 0  9990",
        "tle_line2": "2 31768  99.0442  49.2390 0026353  11.0794   1.6919 14.75610612967363"
      },
      "geometry": {
        "type": "Point",
        "coordinates": [
          66.31876117768356,
          -55.61157891119493
        ]
      }
    },
    {
      "type": "Feature",
      "properties": {
        "norad_id": 31772,
        "name": "FENGYUN 1C DEB",
        "group": "fengyun-1c-debris",
        "lat": 7.003748706956532,
        "lon": -102.56914950323376,
        "alt_km": 909.5709766054197,
        "timestamp": "2025-12-06T16:45:43.006155+00:00",
        "meta_object_name": "FENGYUN 1C DEB",
        "meta_object_id": "1999-025CFX",
        "meta_epoch": "2025-12-02T05:33:26.479008",
        "meta_mean_motion": 14.11635308,
        "meta_eccentricity": 0.0135819,
        "meta_inclination": 98.4716,
        "meta_ra_of_asc_node": 254.2606,
        "meta_arg_of_pericenter": 143.9036,
        "meta_mean_anomaly": 217.1401,
        "meta_ephemeris_type": 0,
        "meta_classification_type": "U",
        "meta_norad_cat_id": 31772,
        "meta_element_set_no": 999,
        "meta_rev_at_epoch": 70735,
        "meta_bstar": 0.0011634,
        "meta_mean_motion_dot": 2.268e-05,
        "meta_mean_motion_ddot": 0,
        "tle_line1": "1 31772U 99025CFX 25336.23155647  .00002268  00000+0  11634-2 0  9991",
        "tle_line2": "2 31772  98.4716 254.2606 0135819 143.9036 217.1401 14.11635308707355"
      },
      "geometry": {
        "type": "Point",
        "coordinates": [
          -102.56914950323376,
          7.003748706956532
        ]
      }
    },
    {
      "type": "Feature",
      "properties": {
        "norad_id": 31773,
        "name": "FENGYUN 1C DEB",
        "group": "fengyun-1c-debris",
        "lat": -17.21402671369412,
        "lon": 148.21130282465947,
        "alt_km": 630.7904517167244,
        "timestamp": "2025-12-06T16:45:43.006165+00:00",
        "meta_object_name": "FENGYUN 1C DEB",
        "meta_object_id": "1999-025CFY",
        "meta_epoch": "2025-12-01T05:23:44.833344",
        "meta_mean_motion": 14.72359777,
        "meta_eccentricity": 0.0038605,
        "meta_inclination": 98.9488,
        "meta_ra_of_asc_node": 324.9883,
        "meta_arg_of_pericenter": 215.5051,
        "meta_mean_anomaly": 144.3583,
        "meta_ephemeris_type": 0,
        "meta_classification_type": "U",
        "meta_norad_cat_id": 31773,
        "meta_element_set_no": 999,
        "meta_rev_at_epoch": 65005,
        "meta_bstar": 0.0025423,
        "meta_mean_motion_dot": 0.00016254,
        "meta_mean_motion_ddot": 0,
        "tle_line1": "1 31773U 99025CFY 25335.22482446  .00016254  00000+0  25423-2 0  9991",
        "tle_line2": "2 31773  98.9488 324.9883 0038605 215.5051 144.3583 14.72359777650053"
      },
      "geometry": {
        "type": "Point",
        "coordinates": [
          148.21130282465947,
          -17.21402671369412
        ]
      }
    }
  ]
}